NORAD_CAT_ID,OBJECT_NAME,OBJECT_TYPE,EPOCH,MEAN_MOTION,ECCENTRICITY,INCLINATION,RA_OF_ASC_NODE,ARG_OF_PERICENTER,MEAN_ANOMALY,BSTAR,MEAN_MOTION_DOT,MEAN_MOTION_DDOT,TLE_LINE0,TLE_LINE1,TLE_LINE2,SEMIMAJOR_AXIS,PERIOD,APOGEE,PERIGEE,DECAYED
51963.0,STARLINK-3675,PAYLOAD,2023-09-14 22:45:07,15.0802593,0.0001409,53.0544,138.3529,98.9849,261.1301,-9.904e-05,-1.827e-05,0.0,0 STARLINK-3675,1 51963U 22025H   23257.94800903 -.00001827  00000-0 -99040-4 0  9993,2 51963  53.0544 138.3529 0001409  98.9849 261.1301 15.08025930 85380,6920.37,95.489,543.21,541.26,0.0
51963.0,STARLINK-3675,PAYLOAD,2023-09-16 01:47:31,15.08041179,0.0001325,53.0541,133.2823,90.3776,269.7365,2.3074e-05,7.3e-07,0.0,0 STARLINK-3675,1 51963U 22025H   23259.07467010  .00000073  00000-0  23074-4 0  9991,2 51963  53.0541 133.2823 0001325  90.3776 269.7365 15.08041179 85556,6920.323,95.488,543.105,541.271,0.0
51963.0,STARLINK-3675,PAYLOAD,2023-09-16 16:06:28,15.08020934,0.0001501,53.0542,130.5947,95.4491,264.667,0.00015528,2.132e-05,0.0,0 STARLINK-3675,1 51963U 22025H   23259.67115967  .00002132  00000-0  15528-3 0  9990,2 51963  53.0542 130.5947 0001501  95.4491 264.6670 15.08020934 85649,6920.385,95.489,543.289,541.211,0.0
51963.0,STARLINK-3675,PAYLOAD,2023-09-17 01:39:04,15.0802853,0.0001361,53.0543,128.8074,88.8014,271.3131,0.00018488,2.593e-05,0.0,0 STARLINK-3675,1 51963U 22025H   23260.06880685  .00002593  00000-0  18488-3 0  9990,2 51963  53.0543 128.8074 0001361  88.8014 271.3131 15.08028530 84615,6920.362,95.489,543.169,541.285,0.0
51963.0,STARLINK-3675,PAYLOAD,2023-09-17 22:19:44,15.08040507,0.0001363,53.0532,124.931,91.1764,268.9382,0.00017151,2.386e-05,0.0,0 STARLINK-3675,1 51963U 22025H   23260.93037633  .00002386  00000-0  17151-3 0  9999,2 51963  53.0532 124.9310 0001363  91.1764 268.9382 15.08040507 85837,6920.325,95.488,543.133,541.247,0.0
51963.0,STARLINK-3675,PAYLOAD,2023-09-18 20:35:51,15.0803191,0.0001285,53.0522,120.7563,95.4973,264.6163,9.022e-05,1.119e-05,0.0,0 STARLINK-3675,1 51963U 22025H   23261.85822977  .00001119  00000-0  90220-4 0  9996,2 51963  53.0522 120.7563 0001285  95.4973 264.6163 15.08031910 84884,6920.351,95.489,543.106,541.327,0.0
51963.0,STARLINK-3675,PAYLOAD,2023-09-18 22:11:17,15.0803588,0.0001276,53.0525,120.4585,96.0456,264.0679,0.00015015,2.053e-05,0.0,0 STARLINK-3675,1 51963U 22025H   23261.92450275  .00002053  00000-0  15015-3 0  9998,2 51963  53.0525 120.4585 0001276  96.0456 264.0679 15.08035880 85989,6920.339,95.488,543.087,541.321,0.0
51963.0,STARLINK-3675,PAYLOAD,2023-09-19 22:02:48,15.08047084,0.0001334,53.0528,115.9824,86.067,274.0472,0.00029554,4.32e-05,0.0,0 STARLINK-3675,1 51963U 22025H   23262.91861962  .00004320  00000-0  29554-3 0  9999,2 51963  53.0528 115.9824 0001334  86.0670 274.0472 15.08047084 85047,6920.305,95.488,543.093,541.247,0.0
51963.0,STARLINK-3675,PAYLOAD,2023-09-20 18:43:30,15.08021377,0.0001627,53.0544,112.1035,76.0703,284.0468,-0.00010257,-1.882e-05,0.0,0 STARLINK-3675,1 51963U 22025H   23263.78020902 -.00001882  00000-0 -10257-3 0  9998,2 51963  53.0544 112.1035 0001627  76.0703 284.0468 15.08021377 86267,6920.384,95.489,543.375,541.123,0.0
51963.0,STARLINK-3675,PAYLOAD,2023-09-20 20:18:56,15.0802061,0.0001674,53.0542,111.8055,73.2536,286.8638,-0.00010036,-1.848e-05,0.0,0 STARLINK-3675,1 51963U 22025H   23263.84648499 -.00001848  00000-0 -10036-3 0  9999,2 51963  53.0542 111.8055 0001674  73.2536 286.8638 15.08020610 85186,6920.386,95.489,543.41,541.093,0.0
51963.0,STARLINK-3675,PAYLOAD,2023-09-21 13:48:44,15.08026278,0.000148,53.0534,108.525,92.8724,267.2435,5.2588e-05,5.33e-06,0.0,0 STARLINK-3675,1 51963U 22025H   23264.57551157  .00000533  00000-0  52588-4 0  9991,2 51963  53.0534 108.5250 0001480  92.8724 267.2435 15.08026278 85294,6920.369,95.489,543.258,541.21,0.0
51963.0,STARLINK-3675,PAYLOAD,2023-09-21 23:21:20,15.08039913,0.0001485,53.053,106.7353,92.389,267.727,0.00041886,6.243e-05,0.0,0 STARLINK-3675,1 51963U 22025H   23264.97315808  .00006243  00000-0  41886-3 0  9998,2 51963  53.0530 106.7353 0001485  92.3890 267.7270 15.08039913 86448,6920.327,95.488,543.22,541.164,0.0
51963.0,STARLINK-3675,PAYLOAD,2023-09-22 13:40:16,15.08036418,0.0001624,53.0531,104.0499,89.0197,271.0978,0.0004035,6.002e-05,0.0,0 STARLINK-3675,1 51963U 22025H   23265.56963597  .00006002  00000-0  40350-3 0  9996,2 51963  53.0531 104.0499 0001624  89.0197 271.0978 15.08036418 85448,6920.338,95.488,543.327,541.079,0.0
51963.0,STARLINK-3675,PAYLOAD,2023-09-22 18:26:34,15.08035928,0.0001577,53.0531,103.1545,91.2993,268.8177,0.00035007,5.169e-05,0.0,0 STARLINK-3675,1 51963U 22025H   23265.76846025  .00005169  00000-0  35007-3 0  9990,2 51963  53.0531 103.1545 0001577  91.2993 268.8177 15.08035928 86560,6920.339,95.488,543.296,541.113,0.0
51963.0,STARLINK-3675,PAYLOAD,2023-09-22 20:02:00,15.08039618,0.0001527,53.0534,102.8569,84.2412,275.8751,0.00037384,5.54e-05,0.0,0 STARLINK-3675,1 51963U 22025H   23265.83473342  .00005540  00000-0  37384-3 0  9999,2 51963  53.0534 102.8569 0001527  84.2412 275.8751 15.08039618 85484,6920.328,95.488,543.25,541.136,0.0
51963.0,STARLINK-3675,PAYLOAD,2023-09-23 18:18:06,15.0803575,0.0001496,53.0531,98.681,81.2909,278.8251,4.1814e-05,3.65e-06,0.0,0 STARLINK-3675,1 51963U 22025H   23266.76258042  .00000365  00000-0  41814-4 0  9994,2 51963  53.0531  98.6810 0001496  81.2909 278.8251 15.08035750 86713,6920.34,95.488,543.24,541.169,0.0
51963.0,STARLINK-3675,PAYLOAD,2023-09-24 13:23:20,15.08031944,0.0001385,53.0527,95.1023,83.1556,276.9591,-1.345e-05,-4.95e-06,0.0,0 STARLINK-3675,1 51963U 22025H   23267.55788065 -.00000495  00000-0 -13450-4 0  9996,2 51963  53.0527  95.1023 0001385  83.1556 276.9591 15.08031944 85741,6920.351,95.489,543.175,541.258,0.0
51963.0,STARLINK-3675,PAYLOAD,2023-09-24 18:09:39,15.08035136,0.0001429,53.0534,94.2072,93.0322,267.0831,3.4975e-05,2.59e-06,0.0,0 STARLINK-3675,1 51963U 22025H   23267.75670271  .00000259  00000-0  34975-4 0  9998,2 51963  53.0534  94.2072 0001429  93.0322 267.0831 15.08035136 85771,6920.342,95.488,543.196,541.218,0.0
51963.0,STARLINK-3675,PAYLOAD,2023-09-25 05:17:42,15.08037651,0.0001342,53.0534,92.1196,83.6528,276.4615,0.00010322,1.322e-05,0.0,0 STARLINK-3675,1 51963U 22025H   23268.22062578  .00001322  00000-0  10322-3 0  9997,2 51963  53.0534  92.1196 0001342  83.6528 276.4615 15.08037651 86939,6920.334,95.488,543.128,541.27,0.0
51963.0,STARLINK-3675,PAYLOAD,2023-09-25 19:36:37,15.0803607,0.0001426,53.0544,89.4333,77.5798,282.5351,5.8411e-05,6.24e-06,0.0,0 STARLINK-3675,1 51963U 22025H   23268.81710339  .00000624  00000-0  58411-4 0  9993,2 51963  53.0544  89.4333 0001426  77.5798 282.5351 15.08036070 87026,6920.339,95.488,543.191,541.217,0.0
51963.0,STARLINK-3675,PAYLOAD,2023-09-25 21:12:03,15.08036576,0.0001499,53.0545,89.138,86.9081,273.208,9.2282e-05,1.151e-05,0.0,0 STARLINK-3675,1 51963U 22025H   23268.88337575  .00001151  00000-0  92282-4 0  9997,2 51963  53.0545  89.1380 0001499  86.9081 273.2080 15.08036576 85941,6920.337,95.488,543.24,541.165,0.0
51963.0,STARLINK-3675,PAYLOAD,2023-09-25 22:47:29,15.08039636,0.0001547,53.0548,88.8404,84.7404,275.3762,0.00013082,1.752e-05,0.0,0 STARLINK-3675,1 51963U 22025H   23268.94964954  .00001752  00000-0  13082-3 0  9998,2 51963  53.0548  88.8404 0001547  84.7404 275.3762 15.08039636 85957,6920.328,95.488,543.263,541.122,0.0
51963.0,STARLINK-3675,PAYLOAD,2023-09-26 17:52:44,15.08029361,0.0001734,53.0538,85.2592,126.9863,233.1285,4.2169e-05,3.7e-06,0.0,0 STARLINK-3675,1 51963U 22025H   23269.74495620  .00000370  00000-0  42169-4 0  9990,2 51963  53.0538  85.2592 0001734 126.9863 233.1285 15.08029361 87162,6920.359,95.489,543.424,541.024,0.0
51963.0,STARLINK-3675,PAYLOAD,2023-09-26 21:03:36,15.08028063,0.0001513,53.0538,84.6621,89.011,271.1053,4.1513e-05,3.6e-06,0.0,0 STARLINK-3675,1 51963U 22025H   23269.87750921  .00000360  00000-0  41513-4 0  9993,2 51963  53.0538  84.6621 0001513  89.0110 271.1053 15.08028063 86091,6920.363,95.489,543.275,541.181,0.0
51963.0,STARLINK-3675,PAYLOAD,2023-09-27 11:22:32,15.08028977,0.0001584,53.0542,81.9772,89.715,270.4021,0.00014944,2.041e-05,0.0,0 STARLINK-3675,1 51963U 22025H   23270.47398591  .00002041  00000-0  14944-3 0  9997,2 51963  53.0542  81.9772 0001584  89.7150 270.4021 15.08028977 86183,6920.36,95.489,543.322,541.129,0.0
51963.0,STARLINK-3675,PAYLOAD,2023-09-28 11:14:04,15.08033437,0.0001577,53.0533,77.505,85.7824,274.3346,0.00024805,3.578e-05,0.0,0 STARLINK-3675,1 51963U 22025H   23271.46811002  .00003578  00000-0  24805-3 0  9997,2 51963  53.0533  77.5050 0001577  85.7824 274.3346 15.08033437 87427,6920.347,95.489,543.303,541.12,0.0
51963.0,STARLINK-3675,PAYLOAD,2023-09-28 17:35:49,15.08034647,0.000148,53.0537,76.3119,85.9049,274.211,0.00015019,2.053e-05,0.0,0 STARLINK-3675,1 51963U 22025H   23271.73320854  .00002053  00000-0  15019-3 0  9991,2 51963  53.0537  76.3119 0001480  85.9049 274.2110 15.08034647 86373,6920.343,95.489,543.232,541.184,0.0
51963.0,STARLINK-3675,PAYLOAD,2023-09-29 14:16:29,15.08034914,0.0001456,53.054,72.4344,86.8789,273.2367,9.5609e-05,1.203e-05,0.0,0 STARLINK-3675,1 51963U 22025H   23272.59478196  .00001203  00000-0  95609-4 0  9999,2 51963  53.0540  72.4344 0001456  86.8789 273.2367 15.08034914 86503,6920.342,95.489,543.215,541.2,0.0
51963.0,STARLINK-3675,PAYLOAD,2023-09-29 17:27:21,15.08037615,0.0001426,53.0532,71.8375,74.8607,285.254,0.00011884,1.565e-05,0.0,0 STARLINK-3675,1 51963U 22025H   23272.72733028  .00001565  00000-0  11884-3 0  9995,2 51963  53.0532  71.8375 0001426  74.8607 285.2540 15.08037615 87614,6920.334,95.488,543.186,541.212,0.0
51963.0,STARLINK-3675,PAYLOAD,2023-09-30 10:57:09,15.08030994,0.0001403,53.0538,68.5538,84.3385,275.7764,2.149e-05,4.9e-07,0.0,0 STARLINK-3675,1 51963U 22025H   23273.45635680  .00000049  00000-0  21490-4 0  9992,2 51963  53.0538  68.5538 0001403  84.3385 275.7764 15.08030994 87725,6920.354,95.489,543.19,541.248,0.0
